OPS 6582 (TRANSIT 5B-5) 
1 00965U 64083D   23210.50703295  .00000079  00000+0  96368-4 0  9991
2 00965  90.0336 196.8407 0043037 117.6717 355.3799 13.56831083901284
OSCAR 7 (AO-7)          
1 07530U 74089B   23210.81282589 -.00000025  00000+0  13044-3 0  9996
2 07530 101.9494 197.7804 0012191 344.2397 135.3362 12.53665677228752
UOSAT 2 (UO-11)         
1 14781U 84021B   23209.90230242  .00001749  00000+0  21067-3 0  9993
2 14781  97.6593 185.2255 0009713  69.4733 290.7524 14.85052484121332
NOAA 9                  
1 15427U 84123A   23209.95097319  .00000166  00000+0  10682-3 0  9998
2 15427  99.0919 194.8955 0015911  93.7060 320.7655 14.16387924994387
LUSAT (LO-19)           
1 20442U 90005G   23210.82480822  .00000221  00000+0  97017-4 0  9990
2 20442  98.8465 188.2570 0012713  56.8464 303.3937 14.33286428751510
ITAMSAT (IO-26)         
1 22826U 93061D   23210.38311297  .00000158  00000+0  78043-4 0  9990
2 22826  98.8330 253.8101 0007904 293.5023  66.5328 14.30689180556845
RADIO ROSTO (RS-15)     
1 23439U 94085A   23210.39566448 -.00000023  00000+0  55614-3 0  9999
2 23439  64.8129 207.4201 0161426 202.8938 156.4731 11.27575593177378
JAS-2 (FO-29)           
1 24278U 96046B   23210.40973464 -.00000016  00000+0  22673-4 0  9994
2 24278  98.5311 183.2162 0349346 307.5038  49.4814 13.53150711330890
NOAA 15                 
1 25338U 98030A   23210.80743741  .00000259  00000+0  12584-3 0  9991
2 25338  98.6039 239.1313 0010307 182.7917 177.3207 14.26361246311339
TECHSAT 1B (GO-32)      
1 25397U 98043D   23210.38233277  .00000109  00000+0  67555-4 0  9994
2 25397  98.8711 168.2083 0001939  47.7839 312.3503 14.23892150301556
ISS (ZARYA)             
1 25544U 98067A   23211.14657190  .00017367  00000+0  31268-3 0  9998
2 25544  51.6406 115.6786 0000947 139.9370   5.0558 15.49902504408453
ORSTED                  
1 25635U 99008B   23210.36586256  .00000473  00000+0  11860-3 0  9998
2 25635  96.4689 344.8706 0135793 322.1663  37.0050 14.49135445289462
PHASE 3D (AO-40)        
1 26609U 00072B   23210.04895260 -.00000206  00000+0  00000+0 0  9991
2 26609   6.1661 174.0662 7913510 182.1452 168.3441  1.25587436104407
PCSAT (NO-44)           
1 26931U 01043C   23210.76673837  .00000174  00000+0  97726-4 0  9990
2 26931  67.0509  86.8809 0007881 265.4801  94.5400 14.30951625139831
SAUDISAT 1C (SO-50)     
1 27607U 02058C   23210.40459157  .00001144  00000+0  17480-3 0  9992
2 27607  64.5545 135.4884 0064926 215.9806 143.6919 14.77435051108676
CUTE-1 (CO-55)          
1 27844U 03031E   23210.02169519  .00000398  00000+0  19679-3 0  9997
2 27844  98.6780 216.6657 0009977  12.0749 348.0667 14.22827151 41713
CUBESAT XI-IV (CO-57)   
1 27848U 03031J   23210.25831595  .00000358  00000+0  18078-3 0  9994
2 27848  98.6816 217.2985 0010172  25.9829 334.1858 14.22332085 41534
MOZHAYETS 4 (RS-22)     
1 27939U 03042A   23210.79622878  .00001378  00000+0  24613-3 0  9993
2 27939  98.2484 358.0910 0012513   8.1332 128.3029 14.68518217 60792
INMARSAT 4-F1           
1 28628U 05009A   23208.59461972 -.00000250  00000+0  00000+0 0  9994
2 28628   3.9447  38.8032 0002734  90.3091 173.4459  1.00271660 67084
NOAA 18                 
1 28654U 05018A   23210.76618493  .00000221  00000+0  14258-3 0  9998
2 28654  98.9083 284.9485 0013214 258.1461 101.8230 14.12977495937588
CUBESAT XI-V            
1 28895U 05043F   23209.84998308  .00001607  00000+0  30299-3 0  9998
2 28895  98.1587 341.6059 0015094 303.3024  56.6734 14.65812684947145
METOP-A                 
1 29499U 06044A   23210.44968847  .00002408  00000+0  31829-3 0  9994
2 29499  98.3982 272.0742 0194074 169.5247 253.0592 14.68720838873233
CARTOSAT-2 (IRS-P7)     
1 29710U 07001B   23210.85580616  .00045667  00000+0  53705-3 0  9994
2 29710  97.8960 352.4659 0089598  46.3645 314.4994 15.56424726898934
CAPE-1                  
1 31130U 07012P   23210.35400781  .00001577  00000+0  32970-3 0  9997
2 31130  98.3091 154.4302 0094331 111.6739 249.4537 14.58492486864369
CARTOSAT-2A             
1 32783U 08021A   23210.72119702  .00001025  00000+0  14678-3 0  9997
2 32783  97.9137 270.4901 0011295 290.3028  69.6968 14.78681411823206
CUTE-1.7+APD II (CO-65) 
1 32785U 08021C   23210.77074742  .00004100  00000+0  40320-3 0  9998
2 32785  97.7075 175.8282 0010962 329.3329  30.7249 14.92621069827242
COMPASS-1               
1 32787U 08021E   23210.43117217  .00008232  00000+0  63248-3 0  9992
2 32787  97.5798 185.9536 0010870 222.9900 137.0476 15.01946209829049
AAUSAT-II               
1 32788U 08021F   23209.92322213  .00008493  00000+0  60640-3 0  9991
2 32788  97.5616 188.4398 0007066 192.5540 167.5511 15.04737749829484
DELFI-C3 (DO-64)        
1 32789U 08021G   23210.80764604  .00072306  00000+0  16616-2 0  9992
2 32789  97.2994 232.1649 0001686   0.3821 359.7428 15.42416320834048
SEEDS II (CO-66)        
1 32791U 08021J   23210.38352693  .00005827  00000+0  50790-3 0  9995
2 32791  97.6565 180.7525 0010057 269.2007  90.8062 14.97217818828055
YUBILEINY (RS-30)       
1 32953U 08025A   23210.69881548  .00000001  00000+0 -62353-4 0  9998
2 32953  82.5032 290.6557 0020724  93.0534 267.2917 12.43127072688934
FENGYUN 3A              
1 32958U 08026A   23210.80413507  .00000135  00000+0  85224-4 0  9992
2 32958  98.5571 163.1296 0007605 289.5015  70.5340 14.18894950786100
PRISM (HITOMI)          
1 33493U 09002B   23209.48929894  .00008035  00000+0  53458-3 0  9995
2 33493  98.2444 226.9262 0014008 265.6354  94.3271 15.07372524789969
STARS (KUKAI)           
1 33498U 09002G   23210.00003305  .00002809  00000+0  35833-3 0  9990
2 33498  98.1321 113.5335 0010937  27.0015 333.1765 14.82273283782026
KKS-1 (KISEKI)          
1 33499U 09002H   23210.73258123  .00001443  00000+0  21116-3 0  9993
2 33499  98.1679 103.5880 0010192  90.6654 269.5724 14.77201006780770
NOAA 19                 
1 33591U 09005A   23210.74527339  .00000208  00000+0  13644-3 0  9993
2 33591  99.0969 257.3464 0014810 121.5691 238.6928 14.12794372745953
SWISSCUBE               
1 35932U 09051B   23210.19672091  .00001111  00000+0  25335-3 0  9994
2 35932  98.5160  81.5403 0006341 232.1952 127.8672 14.57834182735373
BEESAT-1                
1 35933U 09051C   23209.61232493  .00000897  00000+0  20715-3 0  9995
2 35933  98.5089  82.2282 0004455 248.0731 111.9994 14.57727184735400
ITUPSAT1                
1 35935U 09051E   23210.22911602  .00000873  00000+0  20594-3 0  9991
2 35935  98.5187  82.7882 0006706 252.8967 107.1496 14.56771022735118
XIWANG-1 (HOPE-1)       
1 36122U 09072B   23210.41907584 -.00000043  00000+0  14284-5 0  9999
2 36122 100.2406 172.9698 0008066 122.7838 237.4054 13.16385282654461
CARTOSAT-2B             
1 36795U 10035A   23210.75827692  .00001024  00000+0  14644-3 0  9991
2 36795  97.9080 270.3940 0013091  12.5322 347.6213 14.78725270704256
TISAT 1                 
1 36799U 10035E   23210.20266443  .00005587  00000+0  49370-3 0  9998
2 36799  98.1327  81.4807 0010657 185.4418 174.6688 14.96730482708711
FENGYUN 3B              
1 37214U 10059A   23210.79783662  .00000098  00000+0  75403-4 0  9997
2 37214  99.0830 228.8861 0021162 286.8575 181.8330 14.14360008658534
JUGNU                   
1 37839U 11058B   23210.43645163  .00000494  00000+0  12015-3 0  9993
2 37839  19.9598 226.5968 0018675 325.5792 180.1107 14.12981995609878
SRMSAT                  
1 37841U 11058D   23210.66969473  .00000481  00000+0  11896-3 0  9996
2 37841  19.9731 313.1718 0011873 137.8709   5.4896 14.10919677609039
M-CUBED & EXP-1 PRIME   
1 37855U 11061F   23210.18144177  .00023384  00000+0  68707-3 0  9998
2 37855 101.7063 195.6192 0112194 270.9120  87.9251 15.29092019643441
HORYU-2                 
1 38340U 12025D   23210.01291396  .00002540  00000+0  35245-3 0  9999
2 38340  98.1710 299.3243 0010705  10.6202 349.5232 14.78809734602683
METOP-B                 
1 38771U 12049A   23210.76148969  .00000139  00000+0  83277-4 0  9993
2 38771  98.6760 269.4192 0001009  99.6887   9.8356 14.21494789563592
SARAL                   
1 39086U 13009A   23209.80644757  .00000146  00000+0  70502-4 0  9994
2 39086  98.5486  34.4901 0002545 135.6629 224.4759 14.32238854544643
AAUSAT 3                
1 39087U 13009B   23210.82777394  .00000830  00000+0  29478-3 0  9998
2 39087  98.3806  44.8374 0013158 126.8652 233.3743 14.36875105546067
STRAND-1                
1 39090U 13009E   23210.44822914  .00000390  00000+0  14984-3 0  9996
2 39090  98.3881  42.6474 0009799 133.2315 226.9691 14.35641875545800
BRITE-AUSTRIA           
1 39091U 13009F   23210.10190882  .00000247  00000+0  10057-3 0  9990
2 39091  98.3911  41.5436 0011156 141.3285 218.8701 14.35515273545777
UNIBRITE                
1 39092U 13009G   23210.09028142  .00000236  00000+0  96839-4 0  9999
2 39092  98.3948  41.3781 0010141 136.6799 223.5185 14.35387529545724
SOMP                    
1 39134U 13015E   23210.49598208  .00236148  00000+0  14296-2 0  9990
2 39134  64.8411 137.6292 0018023 257.7970 102.1166 15.76431895570005
BEESAT-3                
1 39135U 13015F   23210.36702076  .00051787  00000+0  10133-2 0  9997
2 39135  64.8545 195.0577 0017492 251.3436 108.5806 15.46953045568881
BEESAT-2                
1 39136U 13015G   23210.44064451  .00041813  00000+0  92377-3 0  9995
2 39136  64.8646 207.1601 0027704 272.3953  87.4014 15.43215231568679
NEE-01 PEGASO           
1 39151U 13018B   23210.02418686  .00002218  00000+0  27904-3 0  9992
2 39151  98.0123 320.2785 0016292  20.7512 339.4359 14.83014578553895
CUBEBUG-1 (CAPITAN BETO)
1 39153U 13018D   23210.79929201  .00003099  00000+0  37698-3 0  9997
2 39153  98.0426 327.3340 0015776  11.9482 348.2103 14.84124607554197
ESTCUBE 1               
1 39161U 13021C   23210.77153438  .00001927  00000+0  29711-3 0  9994
2 39161  97.8701 281.8282 0009207 184.3541 175.7589 14.74488862549449
